start=new Date('2022-05-17T00:00:00.000Z').valueOf();
sats=[{"DECAY_DATE":null,"MEAN_ANOMALY":"29.3590","NORAD_CAT_ID":"48000","LAUNCH_DATE":"2021-03-24","GP_ID":"203707134","INCLINATION":"53.0562","CENTER_NAME":"EARTH","OBJECT_NAME":"STARLINK-2270","RCS_SIZE":"LARGE","REF_FRAME":"TEME","OBJECT_ID":"2021-024Z","TLE_LINE2":"2 48000  53.0562  14.0923 0001932  52.1307  29.3590 15.03934890 65446","SITE":"AFETR","RA_OF_ASC_NODE":"14.0923","OBJECT_TYPE":"PAYLOAD","COUNTRY_CODE":"US","PERIAPSIS":"553.440","REV_AT_EPOCH":"6544","CLASSIFICATION_TYPE":"U","BSTAR":"-0.00016368000000","ELEMENT_SET_NO":"999","APOAPSIS":"556.119","TLE_LINE1":"1 48000U 21024Z   22136.91667824 -.00002556  00000-0 -16368-3 0  9995","FILE":"3448861","EPHEMERIS_TYPE":"0","MEAN_ELEMENT_THEORY":"SGP4","SEMIMAJOR_AXIS":"6932.914","ECCENTRICITY":"0.00019320","PERIOD":"95.749","MEAN_MOTION":"15.03934890","TIME_SYSTEM":"UTC","EPOCH":"2022-05-16T22:00:00.999936","MEAN_MOTION_DOT":"-0.00002556","MEAN_MOTION_DDOT":"0.0000000000000","ARG_OF_PERICENTER":"52.1307"},{"BSTAR":"0.00124970000000","ELEMENT_SET_NO":"999","CLASSIFICATION_TYPE":"U","REV_AT_EPOCH":"130","COUNTRY_CODE":"US","PERIAPSIS":"546.341","OBJECT_TYPE":"PAYLOAD","SITE":"AFETR","TLE_LINE2":"2 48002  53.0559  35.5150 0001409  71.1333 308.5450 15.06366361  1300","RA_OF_ASC_NODE":"35.5150","RCS_SIZE":"LARGE","REF_FRAME":"TEME","OBJECT_ID":"2021-024AB","OBJECT_NAME":"STARLINK-2265","CENTER_NAME":"EARTH","GP_ID":"203698340","INCLINATION":"53.0559","LAUNCH_DATE":"2021-03-24","NORAD_CAT_ID":"48002","DECAY_DATE":null,"MEAN_ANOMALY":"308.5450","MEAN_MOTION_DDOT":"0.0000000000000","ARG_OF_PERICENTER":"71.1333","MEAN_MOTION_DOT":"0.00018365","EPOCH":"2022-05-16T14:00:01.000224","TIME_SYSTEM":"UTC","MEAN_MOTION":"15.06366361","SEMIMAJOR_AXIS":"6925.452","PERIOD":"95.594","ECCENTRICITY":"0.00014090","MEAN_ELEMENT_THEORY":"SGP4","FILE":"3448591","EPHEMERIS_TYPE":"0","APOAPSIS":"548.292","TLE_LINE1":"1 48002U 21024AB  22136.58334491  .00018365  00000-0  12497-2 0  9992"},{"COUNTRY_CODE":"US","OBJECT_TYPE":"PAYLOAD","PERIAPSIS":"545.551","REV_AT_EPOCH":"6449","CLASSIFICATION_TYPE":"U","BSTAR":"0.00006606500000","ELEMENT_SET_NO":"999","OBJECT_NAME":"STARLINK-2263","RCS_SIZE":"LARGE","OBJECT_ID":"2021-024AC","REF_FRAME":"TEME","SITE":"AFETR","TLE_LINE2":"2 48003  53.0562 111.3515 0002358  43.8228 316.2948 15.06409654 64496","RA_OF_ASC_NODE":"111.3515","NORAD_CAT_ID":"48003","GP_ID":"203698081","INCLINATION":"53.0562","LAUNCH_DATE":"2021-03-24","CENTER_NAME":"EARTH","DECAY_DATE":null,"MEAN_ANOMALY":"316.2948","TIME_SYSTEM":"UTC","EPOCH":"2022-05-16T09:34:06.647520","MEAN_MOTION_DOT":"0.00000703","ARG_OF_PERICENTER":"43.8228","MEAN_MOTION_DDOT":"0.0000000000000","SEMIMAJOR_AXIS":"6925.319","PERIOD":"95.592","ECCENTRICITY":"0.00023580","MEAN_MOTION":"15.06409654","APOAPSIS":"548.817","TLE_LINE1":"1 48003U 21024AC  22136.39868805  .00000703  00000-0  66065-4 0  9992","EPHEMERIS_TYPE":"0","FILE":"3448591","MEAN_ELEMENT_THEORY":"SGP4"},{"FILE":"3448591","EPHEMERIS_TYPE":"0","MEAN_ELEMENT_THEORY":"SGP4","APOAPSIS":"548.659","TLE_LINE1":"1 48005U 21024AE  22136.57469329  .00001085  00000-0  91722-4 0  9994","MEAN_MOTION_DDOT":"0.0000000000000","ARG_OF_PERICENTER":"60.2499","MEAN_MOTION_DOT":"0.00001085","EPOCH":"2022-05-16T13:47:33.500256","TIME_SYSTEM":"UTC","MEAN_MOTION":"15.06396419","SEMIMAJOR_AXIS":"6925.360","PERIOD":"95.592","ECCENTRICITY":"0.00020720","CENTER_NAME":"EARTH","INCLINATION":"53.0557","GP_ID":"203697339","LAUNCH_DATE":"2021-03-24","NORAD_CAT_ID":"48005","DECAY_DATE":null,"MEAN_ANOMALY":"299.8695","ELEMENT_SET_NO":"999","BSTAR":"0.00009172200000","CLASSIFICATION_TYPE":"U","REV_AT_EPOCH":"6494","PERIAPSIS":"545.790","COUNTRY_CODE":"US","OBJECT_TYPE":"PAYLOAD","TLE_LINE2":"2 48005  53.0557  80.5515 0002072  60.2499 299.8695 15.06396419 64944","SITE":"AFETR","RA_OF_ASC_NODE":"80.5515","RCS_SIZE":"LARGE","REF_FRAME":"TEME","OBJECT_ID":"2021-024AE","OBJECT_NAME":"STARLINK-2254"},{"CLASSIFICATION_TYPE":"U","ELEMENT_SET_NO":"999","BSTAR":"-0.00112820000000","COUNTRY_CODE":"US","OBJECT_TYPE":"PAYLOAD","PERIAPSIS":"546.241","REV_AT_EPOCH":"6543","RA_OF_ASC_NODE":"14.0132","SITE":"AFETR","TLE_LINE2":"2 48008  53.0557  14.0132 0001443  71.3756 226.9458 15.06391227 65439","OBJECT_NAME":"STARLINK-2271","REF_FRAME":"TEME","OBJECT_ID":"2021-024AH","RCS_SIZE":"LARGE","CENTER_NAME":"EARTH","NORAD_CAT_ID":"48008","INCLINATION":"53.0557","GP_ID":"203707153","LAUNCH_DATE":"2021-03-24","MEAN_ANOMALY":"226.9458","DECAY_DATE":null,"ARG_OF_PERICENTER":"71.3756","MEAN_MOTION_DDOT":"0.0000000000000","TIME_SYSTEM":"UTC","EPOCH":"2022-05-16T22:00:00.999936","MEAN_MOTION_DOT":"-0.00017042","PERIOD":"95.593","ECCENTRICITY":"0.00014430","SEMIMAJOR_AXIS":"6925.375","MEAN_MOTION":"15.06391227","MEAN_ELEMENT_THEORY":"SGP4","FILE":"3448863","EPHEMERIS_TYPE":"0","TLE_LINE1":"1 48008U 21024AH  22136.91667824 -.00017042  00000-0 -11282-2 0  9998","APOAPSIS":"548.240"},{"MEAN_MOTION":"15.06406282","PERIOD":"95.592","ECCENTRICITY":"0.00021740","SEMIMAJOR_AXIS":"6925.329","MEAN_MOTION_DOT":"0.00000727","TIME_SYSTEM":"UTC","EPOCH":"2022-05-16T20:29:37.265856","ARG_OF_PERICENTER":"51.9030","MEAN_MOTION_DDOT":"0.0000000000000","TLE_LINE1":"1 48009U 21024AJ  22136.85390354  .00000727  00000-0  67710-4 0  9992","APOAPSIS":"548.700","MEAN_ELEMENT_THEORY":"SGP4","FILE":"3448863","EPHEMERIS_TYPE":"0","REF_FRAME":"TEME","OBJECT_ID":"2021-024AJ","RCS_SIZE":"LARGE","OBJECT_NAME":"STARLINK-2153","RA_OF_ASC_NODE":"89.2895","SITE":"AFETR","TLE_LINE2":"2 48009  53.0576  89.2895 0002174  51.9030 308.2155 15.06406282 64381","REV_AT_EPOCH":"6438","OBJECT_TYPE":"PAYLOAD","COUNTRY_CODE":"US","PERIAPSIS":"545.689","BSTAR":"0.00006771000000","ELEMENT_SET_NO":"999","CLASSIFICATION_TYPE":"U","MEAN_ANOMALY":"308.2155","DECAY_DATE":null,"LAUNCH_DATE":"2021-03-24","GP_ID":"203707662","INCLINATION":"53.0576","NORAD_CAT_ID":"48009","CENTER_NAME":"EARTH"},{"RA_OF_ASC_NODE":"111.6180","SITE":"AFETR","TLE_LINE2":"2 48010  53.0540 111.6180 0001783  59.8361 300.2804 15.06397699 64496","OBJECT_ID":"2021-024AK","REF_FRAME":"TEME","RCS_SIZE":"LARGE","OBJECT_NAME":"STARLINK-2226","ELEMENT_SET_NO":"999","BSTAR":"0.00006868600000","CLASSIFICATION_TYPE":"U","REV_AT_EPOCH":"6449","COUNTRY_CODE":"US","PERIAPSIS":"545.986","OBJECT_TYPE":"PAYLOAD","MEAN_ANOMALY":"300.2804","DECAY_DATE":null,"CENTER_NAME":"EARTH","INCLINATION":"53.0540","GP_ID":"203698580","LAUNCH_DATE":"2021-03-24","NORAD_CAT_ID":"48010","MEAN_MOTION":"15.06397699","PERIOD":"95.592","ECCENTRICITY":"0.00017830","SEMIMAJOR_AXIS":"6925.356","MEAN_MOTION_DDOT":"0.0000000000000","ARG_OF_PERICENTER":"59.8361","MEAN_MOTION_DOT":"0.00000742","TIME_SYSTEM":"UTC","EPOCH":"2022-05-16T08:03:53.489664","FILE":"3448591","EPHEMERIS_TYPE":"0","MEAN_ELEMENT_THEORY":"SGP4","TLE_LINE1":"1 48010U 21024AK  22136.33603576  .00000742  00000-0  68686-4 0  9990","APOAPSIS":"548.455"},{"TLE_LINE1":"1 48011U 21024AL  22136.29269952  .00001132  00000-0  94861-4 0  9990","APOAPSIS":"548.767","MEAN_ELEMENT_THEORY":"SGP4","FILE":"3448591","EPHEMERIS_TYPE":"0","MEAN_MOTION":"15.06406445","ECCENTRICITY":"0.00022720","PERIOD":"95.592","SEMIMAJOR_AXIS":"6925.329","MEAN_MOTION_DOT":"0.00001132","TIME_SYSTEM":"UTC","EPOCH":"2022-05-16T07:01:29.238528","MEAN_MOTION_DDOT":"0.0000000000000","ARG_OF_PERICENTER":"51.4437","MEAN_ANOMALY":"308.6755","DECAY_DATE":null,"INCLINATION":"53.0583","GP_ID":"203696840","LAUNCH_DATE":"2021-03-24","NORAD_CAT_ID":"48011","CENTER_NAME":"EARTH","REF_FRAME":"TEME","OBJECT_ID":"2021-024AL","RCS_SIZE":"LARGE","OBJECT_NAME":"STARLINK-2272","RA_OF_ASC_NODE":"91.8318","SITE":"AFETR","TLE_LINE2":"2 48011  53.0583  91.8318 0002272  51.4437 308.6755 15.06406445 64826","REV_AT_EPOCH":"6482","COUNTRY_CODE":"US","OBJECT_TYPE":"PAYLOAD","PERIAPSIS":"545.620","ELEMENT_SET_NO":"999","BSTAR":"0.00009486100000","CLASSIFICATION_TYPE":"U"},{"SITE":"AFETR","TLE_LINE2":"2 48012  53.0569  45.4529 0004618  24.0404 336.0816 15.43213933 64963","RA_OF_ASC_NODE":"45.4529","OBJECT_NAME":"STARLINK-2216","RCS_SIZE":"LARGE","REF_FRAME":"TEME","OBJECT_ID":"2021-024AM","CLASSIFICATION_TYPE":"U","ELEMENT_SET_NO":"999","BSTAR":"0.00069074000000","OBJECT_TYPE":"PAYLOAD","COUNTRY_CODE":"US","PERIAPSIS":"433.486","REV_AT_EPOCH":"6496","DECAY_DATE":null,"MEAN_ANOMALY":"336.0816","CENTER_NAME":"EARTH","NORAD_CAT_ID":"48012","LAUNCH_DATE":"2021-03-24","GP_ID":"203707665","INCLINATION":"53.0569","SEMIMAJOR_AXIS":"6814.768","PERIOD":"93.312","ECCENTRICITY":"0.00046180","MEAN_MOTION":"15.43213933","MEAN_MOTION_DDOT":"0.0000000000000","ARG_OF_PERICENTER":"24.0404","TIME_SYSTEM":"UTC","EPOCH":"2022-05-16T11:34:53.832000","MEAN_MOTION_DOT":"0.00030860","FILE":"3448863","MEAN_ELEMENT_THEORY":"SGP4","EPHEMERIS_TYPE":"0","APOAPSIS":"439.780","TLE_LINE1":"1 48012U 21024AM  22136.48256750  .00030860  00000-0  69074-3 0  9991"},{"TIME_SYSTEM":"UTC","EPOCH":"2022-05-16T20:18:20.609568","MEAN_MOTION_DOT":"-0.00000854","MEAN_MOTION_DDOT":"0.0000000000000","ARG_OF_PERICENTER":"55.7338","PERIOD":"95.592","ECCENTRICITY":"0.00020850","SEMIMAJOR_AXIS":"6925.362","MEAN_MOTION":"15.06395578","TLE_LINE1":"1 48013U 21024AN  22136.84607187 -.00000854  00000-0 -38393-4 0  9999","APOAPSIS":"548.671","EPHEMERIS_TYPE":"0","FILE":"3448863","MEAN_ELEMENT_THEORY":"SGP4","PERIAPSIS":"545.783","COUNTRY_CODE":"US","OBJECT_TYPE":"PAYLOAD","REV_AT_EPOCH":"6459","CLASSIFICATION_TYPE":"U","ELEMENT_SET_NO":"999","BSTAR":"-0.00003839300000","OBJECT_NAME":"STARLINK-2243","REF_FRAME":"TEME","OBJECT_ID":"2021-024AN","RCS_SIZE":"LARGE","RA_OF_ASC_NODE":"74.3448","SITE":"AFETR","TLE_LINE2":"2 48013  53.0558  74.3448 0002085  55.7338 304.3848 15.06395578 64593","NORAD_CAT_ID":"48013","INCLINATION":"53.0558","GP_ID":"203707165","LAUNCH_DATE":"2021-03-24","CENTER_NAME":"EARTH","MEAN_ANOMALY":"304.3848","DECAY_DATE":null}];
